{
"type": "FeatureCollection",
"name": "blacksburg",
"crs": { "type": "name", "properties": { "name": "urn:ogc:def:crs:OGC:1.3:CRS84" } },
"features": [
{ "type": "Feature", "properties": { "id": "globalwatershed" }, "geometry": { "type": "Polygon", "coordinates": [ [ [ -80.440132117824334, 37.21996233115923 ], [ -80.440019433592497, 37.219963240926994 ], [ -80.440021709469093, 37.220143409889026 ], [ -80.439909024961722, 37.220144319549803 ], [ -80.439912438388106, 37.220414572971229 ], [ -80.439799753468819, 37.220415482526271 ], [ -80.439800891146717, 37.220505566994497 ], [ -80.439688206088277, 37.220506476441486 ], [ -80.439689343632551, 37.220596560907545 ], [ -80.439463973234609, 37.220598379476556 ], [ -80.439465110508849, 37.220688463941386 ], [ -80.439352425169346, 37.220689373063394 ], [ -80.439353562309947, 37.220779457526049 ], [ -80.439240876831306, 37.220780366540083 ], [ -80.439242013838282, 37.220870451000458 ], [ -80.439129328220488, 37.220871359906482 ], [ -80.439130465093797, 37.22096144436464 ], [ -80.439017779336865, 37.220962353162705 ], [ -80.439018916076549, 37.221052437618674 ], [ -80.438906230180464, 37.2210533463087 ], [ -80.438907366786509, 37.221143430762375 ], [ -80.438794680751272, 37.221144339344448 ], [ -80.438795817223649, 37.221234423795963 ], [ -80.438683131049274, 37.221235332270034 ], [ -80.438684267388027, 37.221325416719253 ], [ -80.438571581074513, 37.221326325085386 ], [ -80.438572717279612, 37.221416409532381 ], [ -80.438121971452418, 37.221420041910626 ], [ -80.438123107114706, 37.221510126358588 ], [ -80.43801042051463, 37.221511034181546 ], [ -80.43801155604325, 37.221601118627319 ], [ -80.437898869304036, 37.22160202634231 ], [ -80.437900004699003, 37.221692110785817 ], [ -80.43778731782065, 37.221693018392834 ], [ -80.43778958834605, 37.221873187272031 ], [ -80.437676901192148, 37.221874094772147 ], [ -80.437678036322566, 37.221964179207866 ], [ -80.437565349029512, 37.221965086599972 ], [ -80.437568754028078, 37.222235339890574 ], [ -80.437456066323094, 37.222236247176816 ], [ -80.437461740693649, 37.222686669267141 ], [ -80.437349052303915, 37.222687576449701 ], [ -80.437350187049859, 37.222777660858917 ], [ -80.437237498520986, 37.222778567933489 ], [ -80.437240902366113, 37.223048821144587 ], [ -80.437353591304216, 37.223047914066846 ], [ -80.437358130348457, 37.223408251631277 ], [ -80.437470819829429, 37.223407344440211 ], [ -80.437474224550684, 37.22367759757573 ], [ -80.437812294204704, 37.223674875338638 ], [ -80.437813429526486, 37.223764959707324 ], [ -80.438714949574148, 37.223757695601506 ], [ -80.438713813161115, 37.223667611241318 ], [ -80.438939192872709, 37.223665794126497 ], [ -80.438938056189627, 37.223575709765143 ], [ -80.439163435617402, 37.223573892216194 ], [ -80.439162298664272, 37.223483807853711 ], [ -80.439838436063113, 37.22347835259604 ], [ -80.439839573834675, 37.223568436952156 ], [ -80.440064953218396, 37.223566617658314 ], [ -80.440066091265521, 37.223656702009002 ], [ -80.439953401438629, 37.223657611711495 ], [ -80.439955677268358, 37.223837780405141 ], [ -80.439842987165903, 37.223838690000676 ], [ -80.43984526273384, 37.22401885868323 ], [ -80.439732572355808, 37.224019768171921 ], [ -80.439733710007502, 37.224109852509315 ], [ -80.439621019490318, 37.224110761889968 ], [ -80.439622157008358, 37.224200846225116 ], [ -80.439509466352021, 37.224201755497788 ], [ -80.439510603736409, 37.224291839830741 ], [ -80.439397912940905, 37.224292748995445 ], [ -80.439400187445131, 37.224472917653628 ], [ -80.439287496374064, 37.224473826711439 ], [ -80.439290907741821, 37.224744079677151 ], [ -80.439403599222103, 37.224743170616179 ], [ -80.439408148296621, 37.225103507853461 ], [ -80.439520840319787, 37.225102598679193 ], [ -80.439525389984013, 37.225462935859547 ], [ -80.439412697415193, 37.225463845038085 ], [ -80.439416109283044, 37.225734097892065 ], [ -80.439641495236387, 37.225732279419461 ], [ -80.439642632803995, 37.2258223636954 ], [ -80.439868019019144, 37.225820544784412 ], [ -80.439869156862329, 37.225910629054894 ], [ -80.440094543339285, 37.225908809705572 ], [ -80.440095681458061, 37.22599889397069 ], [ -80.440208374828813, 37.225997984131389 ], [ -80.440209513086756, 37.226088068392073 ], [ -80.44009681957958, 37.226088978232461 ], [ -80.440100233960706, 37.226359230998099 ], [ -80.440212927877113, 37.226358321154486 ], [ -80.440215204417797, 37.226538489646337 ], [ -80.440102510228556, 37.226539399492033 ], [ -80.440104786507433, 37.226719567972907 ], [ -80.440217480969508, 37.226718658125058 ], [ -80.440218619249492, 37.226808742359431 ], [ -80.440105924651007, 37.226809652208345 ], [ -80.440108200946426, 37.226989820669445 ], [ -80.439995506072364, 37.226990730411444 ], [ -80.439997782105948, 37.227170898861488 ], [ -80.439885086956295, 37.227171808496607 ], [ -80.439887362728086, 37.227351976935708 ], [ -80.439774667302828, 37.227352886463891 ], [ -80.439775805056442, 37.22744297067954 ], [ -80.439663109492017, 37.227443880099727 ], [ -80.439665384734653, 37.227624048523339 ], [ -80.439552688894651, 37.227624957836575 ], [ -80.439553826383687, 37.227715042044565 ], [ -80.439441130404504, 37.227715951249827 ], [ -80.439442267759858, 37.227806035455572 ], [ -80.439329571641508, 37.227806944552817 ], [ -80.43933070886321, 37.227897028756317 ], [ -80.439218012605664, 37.227897937745581 ], [ -80.439220286784504, 37.228078106144942 ], [ -80.439107590251368, 37.228079015027262 ], [ -80.439108727208492, 37.228169099223074 ], [ -80.438996030536202, 37.228170007997413 ], [ -80.438997167359645, 37.228260092191022 ], [ -80.43888447054816, 37.228261000857387 ], [ -80.43888560723795, 37.228351085048736 ], [ -80.438772910287312, 37.228351993607127 ], [ -80.43877404684342, 37.228442077796267 ], [ -80.438661349753602, 37.228442986246627 ], [ -80.43866362260124, 37.228623154617217 ], [ -80.43855092523583, 37.228624062960677 ], [ -80.438552061527361, 37.228714147142107 ], [ -80.438439364022756, 37.228715055377556 ], [ -80.438441636341224, 37.2288952237327 ], [ -80.438554334118663, 37.228894315495154 ], [ -80.438562288274909, 37.229524904627304 ], [ -80.438674987004575, 37.229523996273194 ], [ -80.43867953284294, 37.229884332843682 ], [ -80.438566833567577, 37.229885241202048 ], [ -80.438571378904285, 37.230245577724354 ], [ -80.438345979253867, 37.230247394122465 ], [ -80.43834711532206, 37.230337478246959 ], [ -80.43812171538778, 37.230339294210992 ], [ -80.438122851185867, 37.2304293783343 ], [ -80.438010151078188, 37.230430286153791 ], [ -80.438011286742579, 37.23052037027491 ], [ -80.43778588624609, 37.230522185588846 ], [ -80.437787021640389, 37.230612269708843 ], [ -80.437674321251592, 37.230613177203281 ], [ -80.437676591775571, 37.230793345435551 ], [ -80.437563891111168, 37.230794252823031 ], [ -80.437565026240861, 37.230884336935304 ], [ -80.437452325437263, 37.230885244214825 ], [ -80.437456865437767, 37.231245580635488 ], [ -80.43756956678709, 37.23124467335176 ], [ -80.437574107377273, 37.231605009715729 ], [ -80.437686809269579, 37.231604102318641 ], [ -80.437694756363314, 37.232234690822011 ], [ -80.437582053515968, 37.232235598226559 ], [ -80.437591134982227, 37.232956270613904 ], [ -80.437703838921081, 37.232955363200851 ], [ -80.437704974253165, 37.233045447233479 ], [ -80.437817678325686, 37.233044539710292 ], [ -80.437818813796966, 37.233134623738536 ], [ -80.437931518003182, 37.233133716105201 ], [ -80.437932653613657, 37.233223800129132 ], [ -80.43804535795357, 37.23322289238569 ], [ -80.438046493703226, 37.233312976405315 ], [ -80.43815919817682, 37.233312068551704 ], [ -80.438161469957279, 37.233492236578961 ], [ -80.438274174700993, 37.2334913286142 ], [ -80.438275310731797, 37.233581412621859 ], [ -80.438388015609206, 37.233580504546936 ], [ -80.438389151779191, 37.233670588550254 ], [ -80.438501856790282, 37.233669680365175 ], [ -80.438502993099462, 37.233759764364137 ], [ -80.438615698244263, 37.233758856068945 ], [ -80.438616834692624, 37.233848940063595 ], [ -80.438729539971106, 37.23384803165829 ], [ -80.438730676558677, 37.23393811564857 ], [ -80.438843381970855, 37.23393720713311 ], [ -80.438844518697607, 37.234027291119062 ], [ -80.438957224243481, 37.234026382493511 ], [ -80.438958361109428, 37.234116466475129 ], [ -80.439183772465782, 37.234114648894582 ], [ -80.439184909607363, 37.234204732870822 ], [ -80.439410321225594, 37.234202914851871 ], [ -80.439411458642823, 37.234292998822703 ], [ -80.439524164584256, 37.234292089648541 ], [ -80.43952530214068, 37.234382173615046 ], [ -80.439638008215795, 37.23438126433075 ], [ -80.439640283609791, 37.234561432251759 ], [ -80.439752989955039, 37.234560522856313 ], [ -80.439760954875965, 37.23519111046943 ], [ -80.439648247575605, 37.235192019872407 ], [ -80.439649385296022, 37.235282103805119 ], [ -80.438635018240774, 37.235290283533232 ], [ -80.438633881748359, 37.235200199590892 ], [ -80.438295759756414, 37.235202924200529 ], [ -80.4382946236761, 37.235112840251695 ], [ -80.438181916476395, 37.23511374823569 ], [ -80.438180780535276, 37.235023664282558 ], [ -80.438068073469282, 37.235024572156391 ], [ -80.438066937667358, 37.234934488198938 ], [ -80.437954230735045, 37.234935395962665 ], [ -80.437953095072317, 37.23484531200085 ], [ -80.437502267861348, 37.234848941960784 ], [ -80.437501132747158, 37.234758857991423 ], [ -80.43592323907275, 37.234771549093487 ], [ -80.435922105871541, 37.234681465105986 ], [ -80.435358572968241, 37.23468599245637 ], [ -80.435359705487215, 37.234776076449165 ], [ -80.435246998761897, 37.23477698159315 ], [ -80.435248131147162, 37.234867065583764 ], [ -80.435022717415379, 37.234868875546553 ], [ -80.435023849530509, 37.234958959536009 ], [ -80.434798435514864, 37.234960769064671 ], [ -80.434799567359846, 37.235050853052975 ], [ -80.434686860211457, 37.235051757654745 ], [ -80.434687991922743, 37.235141841640903 ], [ -80.434462577344846, 37.235143650519362 ], [ -80.43446370878597, 37.235233734504355 ], [ -80.434238293924238, 37.235235542948665 ], [ -80.4342394250952, 37.235325626932536 ], [ -80.434014009949635, 37.235327434942647 ], [ -80.434015140850434, 37.23541751892536 ], [ -80.433789725421022, 37.235419326501372 ], [ -80.433790856051672, 37.235509410482969 ], [ -80.433678148196392, 37.235510314108382 ], [ -80.433679278693333, 37.235600398087726 ], [ -80.433453862701697, 37.235602205013585 ], [ -80.433454992928461, 37.235692288991793 ], [ -80.433229576652977, 37.235694095483446 ], [ -80.433230706609592, 37.235784179460524 ], [ -80.433117998331298, 37.235785082543799 ], [ -80.433119128154203, 37.235875166518682 ], [ -80.432893711316495, 37.23587697236016 ], [ -80.432894840869253, 37.235967056333834 ], [ -80.432669423747697, 37.235968861741185 ], [ -80.432670553030277, 37.236058945713744 ], [ -80.432557844328954, 37.236059848254904 ], [ -80.432558973477811, 37.236149932225274 ], [ -80.43233355579406, 37.236151736982372 ], [ -80.432334684672753, 37.236241820951598 ], [ -80.432109266705169, 37.236243625274568 ], [ -80.432111523924959, 37.236423793207443 ], [ -80.431998814664155, 37.236424695207489 ], [ -80.431999943141705, 37.236514779170093 ], [ -80.431887233741719, 37.236515681062031 ], [ -80.43188836208553, 37.236605765022489 ], [ -80.431775652546364, 37.236606666806445 ], [ -80.431777908969309, 37.236786834719574 ], [ -80.431665199154509, 37.2367877363966 ], [ -80.431667455315463, 37.236967904298808 ], [ -80.431780165403168, 37.236967002619721 ], [ -80.431789191247901, 37.237687674089514 ], [ -80.431676480068546, 37.237688575777149 ], [ -80.431677608174979, 37.237778659697234 ], [ -80.431564896856429, 37.23777956127681 ], [ -80.431568280782741, 37.238049813020766 ], [ -80.431455569052105, 37.238050714494449 ], [ -80.431456696896547, 37.238140798403641 ], [ -80.43156940876365, 37.238139896928885 ], [ -80.431578432709159, 37.238860568076554 ], [ -80.431691145665198, 37.238859666484274 ], [ -80.431693401951819, 37.239039834236415 ], [ -80.43158068872286, 37.239040735830883 ], [ -80.431581816733797, 37.239130819703163 ], [ -80.43124367662115, 37.239133523835122 ], [ -80.431244804225443, 37.239223607707331 ], [ -80.431019377197103, 37.239225409918717 ], [ -80.43102050453119, 37.239315493789789 ], [ -80.430907790876475, 37.239316394732924 ], [ -80.430908918076824, 37.239406478601779 ], [ -80.430796204282913, 37.239407379436891 ], [ -80.430797331349538, 37.239497463303572 ], [ -80.430684617416432, 37.23949836403068 ], [ -80.430685744349333, 37.239588447895123 ], [ -80.430460316201987, 37.239590249024218 ], [ -80.430461442864683, 37.239680332887545 ], [ -80.430348728650458, 37.239681233289581 ], [ -80.430349855179429, 37.239771317150648 ], [ -80.430237140826009, 37.23977221744466 ], [ -80.430238267221242, 37.239862301303582 ], [ -80.430125552728626, 37.239863201489513 ], [ -80.430126678990121, 37.239953285346225 ], [ -80.430013964358324, 37.239954185424217 ], [ -80.43001509048608, 37.240044269278734 ], [ -80.429902375715074, 37.240045169248624 ], [ -80.429904627705838, 37.240225336949983 ], [ -80.429791912659198, 37.240226236812994 ], [ -80.429795290256394, 37.24049648834383 ], [ -80.42968257479761, 37.24049738810087 ], [ -80.429687077752831, 37.240857723433955 ], [ -80.429799793757482, 37.240856823672651 ], [ -80.429808800890555, 37.241577494174273 ], [ -80.429696083794155, 37.24157839394401 ], [ -80.429697209561596, 37.241668477743104 ], [ -80.429584492325986, 37.24166937740484 ], [ -80.429585617959688, 37.241759461201788 ], [ -80.429472900584884, 37.241760360755485 ], [ -80.429474026084833, 37.241850444550209 ], [ -80.429248591054119, 37.241852243332445 ], [ -80.429249716283849, 37.241942327126011 ], [ -80.428911563307935, 37.241945024484515 ], [ -80.428912688130964, 37.242035108278039 ], [ -80.428461816912389, 37.242038703233092 ], [ -80.428460692635241, 37.241948619435369 ], [ -80.428347974960261, 37.24194951790038 ], [ -80.428349099100927, 37.242039601699169 ], [ -80.428236381286766, 37.242040500056184 ], [ -80.428240877330779, 37.242400835223037 ], [ -80.428353595690837, 37.242399936861794 ], [ -80.428355844002141, 37.242580104423659 ], [ -80.428468562632418, 37.242579205951216 ], [ -80.428471935529203, 37.242849457266431 ], [ -80.428359216489483, 37.242850355742007 ], [ -80.428361464828015, 37.243030523271337 ], [ -80.428248745512605, 37.243031421639913 ], [ -80.428249869549475, 37.243121505400715 ], [ -80.428137150094884, 37.243122403661339 ], [ -80.42814726532086, 37.243933157372226 ], [ -80.427809103255868, 37.243935851528008 ], [ -80.427810226774028, 37.244025935260602 ], [ -80.427246622595561, 37.244030423343787 ], [ -80.427247745434045, 37.244120507078371 ], [ -80.426796861496399, 37.244124095585654 ], [ -80.426797983791687, 37.244214179321268 ], [ -80.426685262664009, 37.244215076176431 ], [ -80.42668638482553, 37.244305159909807 ], [ -80.42646094228904, 37.244306953294988 ], [ -80.426462064180313, 37.244397037027277 ], [ -80.426349342771502, 37.244397933557281 ], [ -80.426350464529023, 37.244488017287345 ], [ -80.42623774298103, 37.244488913709347 ], [ -80.426248959340782, 37.245389750842072 ], [ -80.426023513506976, 37.245391543379874 ], [ -80.426022392131742, 37.245301459679069 ], [ -80.424895164164624, 37.245310415812547 ], [ -80.424896284175006, 37.245400499523853 ], [ -80.424107223481215, 37.245406762334092 ], [ -80.424108342538929, 37.245496846049541 ], [ -80.422304772556586, 37.245511140989663 ], [ -80.422305889433233, 37.245601224718619 ], [ -80.422080442863759, 37.245603009624709 ], [ -80.422081559470129, 37.245693093352536 ], [ -80.421743389186162, 37.245695769896678 ], [ -80.421744505385789, 37.245785853624426 ], [ -80.421519058243319, 37.245787637443854 ], [ -80.42152017417267, 37.245877721170466 ], [ -80.421182003029259, 37.245880396084601 ], [ -80.421183118551852, 37.245970479811092 ], [ -80.420957670836415, 37.245972262543845 ], [ -80.420958786088732, 37.246062346269206 ], [ -80.420846062090476, 37.246063237472995 ], [ -80.420847177209012, 37.246153321196147 ], [ -80.42073445307156, 37.246154212291927 ], [ -80.420736683043756, 37.24633437973057 ], [ -80.420623958630628, 37.246335270719364 ], [ -80.420625073484288, 37.246425354434884 ], [ -80.420512348931979, 37.246426245315597 ], [ -80.420513463651844, 37.246516329028964 ], [ -80.420400738960339, 37.246517219801632 ], [ -80.420402968135193, 37.246697387220657 ], [ -80.420290243168026, 37.246698277886367 ], [ -80.420292472080689, 37.246878445294506 ], [ -80.420179746837832, 37.246879335853244 ], [ -80.420181975488319, 37.247059503250533 ], [ -80.420069249969785, 37.247060393702235 ], [ -80.420071478358068, 37.24724056108866 ], [ -80.419958752563858, 37.24724145143341 ], [ -80.419960980689964, 37.247421618808964 ], [ -80.419848254620064, 37.247422509046693 ], [ -80.419849368550672, 37.247512592730665 ], [ -80.419736642341576, 37.24751348286037 ], [ -80.419737756138389, 37.247603566542161 ], [ -80.419625029790112, 37.247604456563785 ], [ -80.419626143453129, 37.247694540243401 ], [ -80.419513416965643, 37.247695430156988 ], [ -80.419514530494865, 37.24778551383438 ], [ -80.419401803868212, 37.247786403639914 ], [ -80.419402917263625, 37.247876487315111 ], [ -80.419177463729227, 37.247878266601084 ], [ -80.41917857685435, 37.247968350275144 ], [ -80.418840396123045, 37.247971018389038 ], [ -80.418841508841382, 37.248061102062962 ], [ -80.418616054734045, 37.24806288026226 ], [ -80.418617167182092, 37.248152963935055 ], [ -80.418391712790978, 37.248154741700056 ], [ -80.41839282496872, 37.248244825371714 ], [ -80.418054642952384, 37.248247491204175 ], [ -80.418055754723341, 37.248337574875691 ], [ -80.417943027242686, 37.248338463269342 ], [ -80.417944138879818, 37.248428546938776 ], [ -80.417718683637432, 37.248430323400925 ], [ -80.417719795004274, 37.248520407069215 ], [ -80.417494339478125, 37.248522183097087 ], [ -80.417495450574663, 37.248612266764148 ], [ -80.417269994764766, 37.248614042357801 ], [ -80.417271105590999, 37.248704126023739 ], [ -80.416932921446445, 37.248706788599165 ], [ -80.416934031865907, 37.24879687226499 ], [ -80.416708575483099, 37.248798646771895 ], [ -80.416709685632227, 37.248888730436548 ], [ -80.416596957300285, 37.248889617527446 ], [ -80.416598067315618, 37.248979701189931 ], [ -80.41648533884451, 37.248980588172721 ], [ -80.416486448726005, 37.249070671833053 ], [ -80.416373720115701, 37.249071558707811 ], [ -80.416374829863415, 37.249161642365905 ], [ -80.416262101113915, 37.249162529132633 ], [ -80.416263210727806, 37.24925261278851 ], [ -80.416150481839125, 37.249253499447221 ], [ -80.416151591319206, 37.249343583100931 ], [ -80.416038862291344, 37.249344469651575 ], [ -80.416039971637602, 37.249434553303082 ], [ -80.415927242470559, 37.249435439745653 ], [ -80.415929460898141, 37.249615607041058 ], [ -80.415816731455408, 37.249616493376649 ], [ -80.415817840536732, 37.24970657702054 ], [ -80.415705110954789, 37.249707463248122 ], [ -80.415706219902304, 37.249797546889795 ], [ -80.415593490181195, 37.249798433009289 ], [ -80.415594598994886, 37.249888516648802 ], [ -80.415481869134581, 37.249889402660223 ], [ -80.415484086497017, 37.250069569931654 ], [ -80.415371356361021, 37.250070455836045 ], [ -80.41537246490978, 37.250160539467998 ], [ -80.415034274076177, 37.250163196529833 ], [ -80.415035382218093, 37.25025328016158 ], [ -80.414809921375934, 37.250255050992777 ], [ -80.414811029247545, 37.250345134623423 ], [ -80.414472837554669, 37.250347790055159 ], [ -80.414473945019438, 37.250437873685691 ], [ -80.413008445630268, 37.250449369224341 ], [ -80.413007339940052, 37.250359285580309 ], [ -80.412556417506025, 37.250362818955878 ], [ -80.412555312364489, 37.250272735304399 ], [ -80.411991659944235, 37.250277149564084 ], [ -80.411992764403237, 37.25036723322075 ], [ -80.411767303143407, 37.250368998163033 ], [ -80.411768407332076, 37.250459081818498 ], [ -80.411655676561637, 37.250459964127046 ], [ -80.411661196862596, 37.250910382361113 ], [ -80.411548465406966, 37.250911264565751 ], [ -80.411552881149845, 37.251271599099006 ], [ -80.411440149145506, 37.251272481198662 ], [ -80.411441252951391, 37.251362564824966 ], [ -80.411328520807885, 37.25136344681659 ], [ -80.411329624479933, 37.251453530440706 ], [ -80.411216892197245, 37.251454412324293 ], [ -80.41121799573547, 37.251544495946163 ], [ -80.411105263313601, 37.251545377721705 ], [ -80.411106366717988, 37.25163546134138 ], [ -80.410993634156924, 37.251636343008897 ], [ -80.410994737427473, 37.251726426626369 ], [ -80.410882004727242, 37.251727308185778 ], [ -80.410883107863967, 37.251817391801104 ], [ -80.410770375024541, 37.251818273252447 ], [ -80.410771478027428, 37.251908356865599 ], [ -80.410546012067556, 37.251910119443082 ], [ -80.410547114800082, 37.252000203055061 ], [ -80.410434381679622, 37.252001084181231 ], [ -80.410435484278324, 37.252091167790994 ], [ -80.410322751018683, 37.252092048809075 ], [ -80.410323853483533, 37.252182132416692 ], [ -80.410098386683245, 37.252183894127619 ], [ -80.410099488877734, 37.25227397773407 ], [ -80.409986755337073, 37.252274858426944 ], [ -80.409984551223758, 37.252094691208768 ], [ -80.4100972844914, 37.252093810517955 ], [ -80.410074139079612, 37.250202053969424 ], [ -80.409961408678612, 37.250202934638452 ], [ -80.409954796739058, 37.249662432499591 ], [ -80.409842067154401, 37.249663313053354 ], [ -80.409836557960674, 37.249212894510251 ], [ -80.409723829055849, 37.249213774949752 ], [ -80.409722727361611, 37.249123691230373 ], [ -80.409609998590625, 37.249124571559754 ], [ -80.40960779548314, 37.248944404109288 ], [ -80.409495066982487, 37.248945284327483 ], [ -80.40949396556924, 37.248855200596381 ], [ -80.409381237202425, 37.248856080704435 ], [ -80.409379034656951, 37.248675913230436 ], [ -80.40926630656044, 37.248676793227396 ], [ -80.409265205428198, 37.248586709484471 ], [ -80.409152477465554, 37.248587589371262 ], [ -80.409150275482062, 37.248407421873686 ], [ -80.409037547789708, 37.248408301649349 ], [ -80.409035346089894, 37.24822813413676 ], [ -80.408922618667887, 37.248229013801279 ], [ -80.408921517958461, 37.24813893003909 ], [ -80.408808790670278, 37.248139809593418 ], [ -80.408806589532432, 37.247959642057303 ], [ -80.408693862514568, 37.247960521500502 ], [ -80.408691661660384, 37.247780353949373 ], [ -80.408578934912853, 37.247781233281422 ], [ -80.408577834626243, 37.24769114949995 ], [ -80.408465108012535, 37.247692028721907 ], [ -80.408464007865092, 37.247601944936193 ], [ -80.408351281385222, 37.247602824048002 ], [ -80.408350181376932, 37.247512740257967 ], [ -80.408237455030886, 37.24751361925972 ], [ -80.408236355161762, 37.24742353546543 ], [ -80.408010902734674, 37.247425293139514 ], [ -80.408009803141184, 37.247335209339901 ], [ -80.407897077060156, 37.247336088012283 ], [ -80.407895977605833, 37.247246004208442 ], [ -80.407783251658614, 37.247246882770675 ], [ -80.40778215234343, 37.247156798962571 ], [ -80.407556700714011, 37.247158555757743 ], [ -80.407555601674488, 37.247068471944331 ], [ -80.407330150307388, 37.247070228301091 ], [ -80.407329051543499, 37.246980144482372 ], [ -80.407103600438759, 37.246981900400705 ], [ -80.407102501950519, 37.246891816576678 ], [ -80.406877051108111, 37.246893572056635 ], [ -80.406875952895518, 37.2468034882273 ], [ -80.406650502315458, 37.246805243268859 ], [ -80.406649404378499, 37.246715159434217 ], [ -80.40631122889792, 37.246717791175271 ], [ -80.406310131373104, 37.246627707334326 ], [ -80.406197406344091, 37.246628584362135 ], [ -80.406189724700212, 37.245997997377422 ], [ -80.406077000623966, 37.245998874288958 ], [ -80.406074806165478, 37.245818706547823 ], [ -80.405962082359551, 37.245819583348201 ], [ -80.405960985270767, 37.2457294994717 ], [ -80.405848261598663, 37.24573037616198 ], [ -80.405847164649032, 37.245640292281209 ], [ -80.405734441110766, 37.245641168861333 ], [ -80.405733344300288, 37.245551084976377 ], [ -80.405620620895832, 37.245551961446374 ], [ -80.405619524224491, 37.245461877557105 ], [ -80.405506800953887, 37.245462753916996 ], [ -80.405505704421685, 37.245372670023492 ], [ -80.405392981284905, 37.245373546273242 ], [ -80.405391884891841, 37.245283462375447 ], [ -80.405279161888899, 37.245284338515091 ], [ -80.405278065634974, 37.24519425461304 ], [ -80.405165342765855, 37.245195130642593 ], [ -80.405163150538939, 37.245014962826616 ], [ -80.405050427940139, 37.245015838745019 ], [ -80.405049331967149, 37.244925754831137 ], [ -80.404936609502187, 37.244926630639455 ], [ -80.404935513668335, 37.244836546721302 ], [ -80.404822791337196, 37.244837422419494 ], [ -80.404821695642482, 37.244747338497071 ], [ -80.404708973445167, 37.244748214085149 ], [ -80.404707877889606, 37.24465813015847 ], [ -80.404595155826115, 37.244659005636407 ], [ -80.404594060409678, 37.244568921705401 ], [ -80.404481338480025, 37.244569797073318 ], [ -80.404480243202727, 37.244479713138062 ], [ -80.404254799608438, 37.24448146354446 ], [ -80.404253704606745, 37.244391379603876 ], [ -80.404140982942096, 37.244392254642435 ], [ -80.404139888079555, 37.244302170697637 ], [ -80.403914445015275, 37.244303920445411 ], [ -80.403913350428354, 37.244213836495298 ], [ -80.403800629028723, 37.244214711204549 ], [ -80.403799534580912, 37.244124627250194 ], [ -80.403574092046654, 37.244126376339338 ], [ -80.403572997874477, 37.244036292379654 ], [ -80.403347555602593, 37.24403804103045 ], [ -80.403346461706008, 37.243947957065394 ], [ -80.403233740702575, 37.243948831226177 ], [ -80.403232646945114, 37.243858747256915 ], [ -80.403119926075519, 37.243859621307529 ], [ -80.403118832457196, 37.243769537334032 ], [ -80.40289339098301, 37.243771285105979 ], [ -80.402892297640292, 37.243681201127117 ], [ -80.402779577035702, 37.243682074848472 ], [ -80.402778483832122, 37.243591990865333 ], [ -80.40244032241192, 37.243594611371783 ], [ -80.402441415206056, 37.243684695357963 ], [ -80.401652370844261, 37.243690806062283 ], [ -80.401653462685687, 37.243780890052406 ], [ -80.400188092467303, 37.243792224335856 ], [ -80.400189182537119, 37.243882308336076 ], [ -80.399174693973123, 37.243890144357714 ], [ -80.399175782817267, 37.243980228363888 ], [ -80.398837619505684, 37.243982838410616 ], [ -80.398838707943014, 37.24407292241662 ], [ -80.398613265449143, 37.244074661904513 ], [ -80.398614353616139, 37.244164745909238 ], [ -80.398388910838776, 37.244166484962783 ], [ -80.398387822944741, 37.244076400955926 ], [ -80.398162380429795, 37.244078139571094 ], [ -80.398161292811366, 37.243988055559001 ], [ -80.397935850558838, 37.24398979373575 ], [ -80.397934763215986, 37.243899709718342 ], [ -80.397822042222259, 37.243900578642119 ], [ -80.397820955018531, 37.243810494620476 ], [ -80.397933675875777, 37.243809625697722 ], [ -80.397930413870938, 37.243539373616301 ], [ -80.398043134316111, 37.243538504587569 ], [ -80.398039871925548, 37.243268252479979 ], [ -80.398152591958649, 37.243267383345206 ], [ -80.398148241595521, 37.242907047160386 ], [ -80.398260961080084, 37.242906177920602 ], [ -80.398256610213181, 37.242545841687928 ], [ -80.39836932914919, 37.242544972343211 ], [ -80.398367153458594, 37.242364804209373 ], [ -80.398479872119026, 37.242363934757591 ], [ -80.398478784141204, 37.2422738506868 ], [ -80.398591502662526, 37.242272981126945 ], [ -80.398590414550853, 37.242182897053986 ], [ -80.398703132933079, 37.242182027386079 ], [ -80.398702044687582, 37.242091943310875 ], [ -80.39881476293067, 37.242091073534908 ], [ -80.398813674551334, 37.242000989457424 ], [ -80.398926392655326, 37.242000119573426 ], [ -80.398925304142139, 37.241910035493774 ], [ -80.399038022107035, 37.241909165501696 ], [ -80.399035844815643, 37.24172899733464 ], [ -80.399148562504934, 37.241728127235511 ], [ -80.399146384951138, 37.24154795905752 ], [ -80.399259102364852, 37.24154708885137 ], [ -80.399256924548666, 37.241366920662365 ], [ -80.399369641686803, 37.241366050349214 ], [ -80.399368552646195, 37.241275966250846 ], [ -80.399481269645221, 37.241275095829572 ], [ -80.399480180470775, 37.241185011728994 ], [ -80.399592897330677, 37.24118414119976 ], [ -80.399590718716766, 37.241003972990882 ], [ -80.399816151882803, 37.241002231609102 ], [ -80.399815062306871, 37.240912147501888 ], [ -80.399927778749458, 37.240911276648404 ], [ -80.399926689039688, 37.240821192538924 ], [ -80.400039405343165, 37.240820321577388 ], [ -80.400038315499557, 37.240730237465634 ], [ -80.400151031663938, 37.240729366396074 ], [ -80.400136862163194, 37.239558272660922 ], [ -80.400249576550848, 37.239557401495546 ], [ -80.400246306320014, 37.239287149020058 ], [ -80.400359020295653, 37.239286277748654 ], [ -80.400355749679179, 37.239016025246961 ], [ -80.400468463242788, 37.239015153869616 ], [ -80.400465192240688, 37.238744901341626 ], [ -80.400577905392254, 37.238744029858239 ], [ -80.400571362640605, 37.238203524720433 ], [ -80.400458650307797, 37.238204396197673 ], [ -80.400454289072002, 37.237844059369856 ], [ -80.40034157728239, 37.237844930733928 ], [ -80.400337216634668, 37.237484593849835 ], [ -80.400449927878455, 37.237483722489877 ], [ -80.400441205618094, 37.236763048573366 ], [ -80.40032849546597, 37.236763919925131 ], [ -80.400326315200189, 37.236583751411338 ], [ -80.400213605318328, 37.236584622651961 ], [ -80.400212515325848, 37.236494538389188 ], [ -80.399987095827115, 37.236496280541246 ], [ -80.399984916395894, 37.236316112001695 ], [ -80.399872206915475, 37.236316982912051 ], [ -80.399871117340282, 37.236226898636396 ], [ -80.399758407993673, 37.23622776943666 ], [ -80.399757318557562, 37.236137685156656 ], [ -80.399644609344776, 37.236138555846864 ], [ -80.399642430753374, 37.235958387275126 ], [ -80.39952972181085, 37.235959257854169 ], [ -80.399527543502913, 37.235779089267275 ], [ -80.399414834830651, 37.235779959735211 ], [ -80.399413745817085, 37.235689875435874 ], [ -80.399301037278647, 37.235690745793711 ], [ -80.399298859532323, 37.235510577183142 ], [ -80.399186151264146, 37.235511447429921 ], [ -80.399183973801286, 37.235331278804253 ], [ -80.399071265803357, 37.235332148939847 ], [ -80.399070177212323, 37.23524206462109 ], [ -80.398957469348233, 37.235242934646656 ], [ -80.398955292446971, 37.23506276599727 ], [ -80.398842584853128, 37.235063635911715 ], [ -80.3988414965429, 37.234973551581071 ], [ -80.398728789082881, 37.234974421385395 ], [ -80.398726612743218, 37.234794252712341 ], [ -80.398613905553461, 37.234795122405558 ], [ -80.398611729497247, 37.234614953717418 ], [ -80.398499022577738, 37.234615823299492 ], [ -80.398496846804946, 37.234435654596254 ], [ -80.398384140155699, 37.23443652406722 ], [ -80.398381964666342, 37.234256355348876 ], [ -80.398269258287343, 37.234257224708742 ], [ -80.398267083081407, 37.234077055975199 ], [ -80.39815437697267, 37.234077925223957 ], [ -80.39815220205017, 37.233897756475351 ], [ -80.398039496211695, 37.233898625613016 ], [ -80.398037321572616, 37.233718456849246 ], [ -80.397924616004389, 37.233719325875768 ], [ -80.397921354474832, 37.233449072702562 ], [ -80.397808649313305, 37.233449941617032 ], [ -80.397805388216767, 37.233179688411305 ], [ -80.397692683461941, 37.233180557213551 ], [ -80.397690509683613, 37.233000388391368 ], [ -80.397577805199049, 37.23300125708252 ], [ -80.397575631704143, 37.23282108824521 ], [ -80.397462927489812, 37.232821956825276 ], [ -80.397460754278313, 37.232641787972824 ], [ -80.39734805033423, 37.232642656441762 ], [ -80.397345877406124, 37.232462487574189 ], [ -80.397233173732303, 37.23246335593204 ], [ -80.397229914769198, 37.23219310260307 ], [ -80.397117211502049, 37.232193970848769 ], [ -80.397110694465511, 37.231653464096254 ], [ -80.396997992014349, 37.231654332226817 ], [ -80.396982787874009, 37.23039314933142 ], [ -80.397095488415104, 37.230392281215131 ], [ -80.397091143923944, 37.230031943131181 ], [ -80.397203843916671, 37.230031074909903 ], [ -80.397198412679757, 37.229580652236216 ], [ -80.397311111987719, 37.229579783910978 ], [ -80.39730676649981, 37.229219445717106 ], [ -80.397419465259418, 37.229218577286879 ], [ -80.39741511926789, 37.22885823904457 ], [ -80.397527817479173, 37.22885737050936 ], [ -80.397523470984041, 37.228497032218613 ], [ -80.397636168646983, 37.228496163578463 ], [ -80.397632908393987, 37.228225909828979 ], [ -80.397745605645028, 37.22822504108283 ], [ -80.39773908439156, 37.227684533501346 ], [ -80.397851780821426, 37.227683664652226 ], [ -80.397849606818482, 37.227503495434178 ], [ -80.39773691066145, 37.227504364281266 ], [ -80.397734736941871, 37.227324195048006 ], [ -80.397622041055044, 37.227325063783987 ], [ -80.397619867618829, 37.22714489453557 ], [ -80.397507172002221, 37.227145763160436 ], [ -80.397506085424482, 37.227055678530284 ], [ -80.397393389941655, 37.227056547045038 ], [ -80.397392303502954, 37.226966462410601 ], [ -80.397279608153923, 37.226967330815306 ], [ -80.39727852185429, 37.226877246176514 ], [ -80.397165826639039, 37.226878114471162 ], [ -80.397164740478445, 37.226788029828079 ], [ -80.396939350312906, 37.226789766088139 ], [ -80.396938264427774, 37.22669968143969 ], [ -80.396712874524539, 37.226701417261516 ], [ -80.396711788914885, 37.226611332607774 ], [ -80.396599094095748, 37.226612200354019 ], [ -80.396598008625119, 37.226522115696049 ], [ -80.396485313939777, 37.226522983332231 ], [ -80.396483143279269, 37.226342814004241 ], [ -80.396370448864118, 37.226343681529372 ], [ -80.396368278486946, 37.226163512186204 ], [ -80.396255584342015, 37.226164379600206 ], [ -80.396253414248179, 37.225984210241855 ], [ -80.396140720373452, 37.225985077544792 ], [ -80.396138550562952, 37.225804908171249 ], [ -80.396025856958431, 37.22580577536305 ], [ -80.396023687431267, 37.225625605974336 ], [ -80.395910994096937, 37.225626473055094 ], [ -80.395908824853123, 37.225446303651211 ], [ -80.395796131788998, 37.225447170620811 ], [ -80.395793962828506, 37.225267001201694 ], [ -80.395681270034586, 37.225267868060207 ], [ -80.395680185694687, 37.225177783344705 ], [ -80.395567493034548, 37.225178650093184 ], [ -80.395565324635456, 37.224998480650278 ], [ -80.395678017022774, 37.22499761390381 ], [ -80.395676932690748, 37.224907529178459 ], [ -80.395789624939042, 37.224906662324003 ], [ -80.395788540473234, 37.224816577596343 ], [ -80.395901232582474, 37.224815710633834 ], [ -80.395899063385912, 37.224635541170677 ], [ -80.396011755219703, 37.224634674101168 ], [ -80.396010670488963, 37.224544589365649 ], [ -80.396123362183729, 37.224543722188123 ], [ -80.396121192457286, 37.224363552709264 ], [ -80.396233883876604, 37.224362685424708 ], [ -80.396231713887857, 37.224182515934743 ], [ -80.396344405031712, 37.224181648543166 ], [ -80.396323788070987, 37.222470037750739 ], [ -80.396436476620508, 37.222469170269456 ], [ -80.396433220988399, 37.222198915828109 ], [ -80.397560102247098, 37.222190235047748 ], [ -80.397561188819196, 37.222280319854598 ], [ -80.398575382954732, 37.22227249781912 ], [ -80.398576470757064, 37.222362582613563 ], [ -80.399590665906885, 37.222354751735651 ], [ -80.399589576876934, 37.222264666950473 ], [ -80.399927641470228, 37.222262054697914 ], [ -80.399926552033705, 37.22217196991248 ], [ -80.400828056408514, 37.222164999115734 ], [ -80.400826965883425, 37.222074914335195 ], [ -80.402291908358805, 37.222063571918127 ], [ -80.402290816063157, 37.221973487147608 ], [ -80.402516191516142, 37.221971740526634 ], [ -80.402515098950332, 37.221881655754856 ], [ -80.402740474119952, 37.221879908699719 ], [ -80.402739381283979, 37.221789823926741 ], [ -80.402852068728421, 37.221788950236572 ], [ -80.402850975758696, 37.221698865461271 ], [ -80.403076350366831, 37.221697117755959 ], [ -80.403075257126957, 37.221607032979414 ], [ -80.403300631451714, 37.221605284839939 ], [ -80.403299537941692, 37.221515200062143 ], [ -80.403524911983055, 37.221513451488534 ], [ -80.403523818202885, 37.22142336670948 ], [ -80.403749191960856, 37.221421617701715 ], [ -80.403748097910537, 37.221331532921418 ], [ -80.404086158118432, 37.221328908594899 ], [ -80.404087252577952, 37.221418993372154 ], [ -80.404425313171203, 37.221416368061149 ], [ -80.404426408042568, 37.221506452831967 ], [ -80.404764469021146, 37.221503826536441 ], [ -80.404765564304356, 37.221593911300872 ], [ -80.40532899989762, 37.221589531955431 ], [ -80.40533009586548, 37.221679616711462 ], [ -80.406907717083158, 37.22166734002613 ], [ -80.406893444883821, 37.220496238128042 ], [ -80.406780759444416, 37.220497115729593 ], [ -80.40677307555481, 37.219866522161567 ], [ -80.406885760039458, 37.219865644567257 ], [ -80.406878075325352, 37.219235050844539 ], [ -80.406765391795432, 37.219235928431679 ], [ -80.406763196459522, 37.219055758764803 ], [ -80.406650513199736, 37.219056636240843 ], [ -80.406649415672149, 37.218966551401394 ], [ -80.406536732546087, 37.218967428767328 ], [ -80.406532343007896, 37.218607089372533 ], [ -80.406419660424731, 37.218607966625271 ], [ -80.40641636870815, 37.218337712041347 ], [ -80.406303686531487, 37.218338589181919 ], [ -80.406299298158771, 37.21797824968629 ], [ -80.406186616525005, 37.217979126713807 ], [ -80.40617893792971, 37.217348532461813 ], [ -80.40629161860879, 37.2173476554416 ], [ -80.406288327412923, 37.217077400715624 ], [ -80.406401007680202, 37.217076523589412 ], [ -80.406399910483842, 37.216986438675164 ], [ -80.406287230352945, 37.216987315800338 ], [ -80.406283939188938, 37.216717061034672 ], [ -80.406171259464529, 37.216717938047708 ], [ -80.406170162551561, 37.21662785311819 ], [ -80.406282842139589, 37.216626976106134 ], [ -80.406281745092883, 37.216536891174357 ], [ -80.406507103988218, 37.21653513682525 ], [ -80.406506006671421, 37.216445051892158 ], [ -80.406731365283363, 37.216443297108917 ], [ -80.40673026769646, 37.216353212174646 ], [ -80.406842946862056, 37.21635233462046 ], [ -80.406841849141429, 37.216262249683865 ], [ -80.407067207191915, 37.216260494250527 ], [ -80.40706501121312, 37.216080324371489 ], [ -80.407177689961614, 37.216079446493289 ], [ -80.407176591839814, 37.215989361549845 ], [ -80.407289270449269, 37.215988483563628 ], [ -80.407288172193773, 37.215898398617888 ], [ -80.407400850664189, 37.21589752052369 ], [ -80.407399752274969, 37.215807435575726 ], [ -80.407512430606346, 37.215806557373469 ], [ -80.407511332083402, 37.215716472423161 ], [ -80.407624010275754, 37.215715594112915 ], [ -80.407621812965075, 37.215535424204489 ], [ -80.407734490882021, 37.215534545787264 ], [ -80.407727898195589, 37.214994035988489 ], [ -80.407615221096904, 37.21499491439954 ], [ -80.407611925198722, 37.214724659452273 ], [ -80.407499248506497, 37.214725537751193 ], [ -80.407495953041376, 37.214455282771027 ], [ -80.40738327675561, 37.214456160957774 ], [ -80.407379981723537, 37.214185905944682 ], [ -80.407267305844229, 37.214186784019326 ], [ -80.407264011245204, 37.2139165289733 ], [ -80.40715133577234, 37.213917406935764 ], [ -80.407149139659012, 37.213737236886409 ], [ -80.407036464456255, 37.213738114737822 ], [ -80.407035366539944, 37.213648029707187 ], [ -80.407373391731184, 37.213645395828948 ], [ -80.407372293408429, 37.213555310798029 ], [ -80.407935667992092, 37.213550918825412 ], [ -80.407934568990143, 37.213460833796304 ], [ -80.408497942825463, 37.213456439102842 ], [ -80.408496843144334, 37.213366354075625 ], [ -80.408722192387089, 37.213364595437028 ], [ -80.408721092435911, 37.213274510408532 ], [ -80.408946441395273, 37.213272751335843 ], [ -80.408945341174004, 37.21318266630611 ], [ -80.409170689849987, 37.21318090679928 ], [ -80.40916958935864, 37.213090821768347 ], [ -80.40939493775123, 37.213089061827411 ], [ -80.409393836989807, 37.212998976795227 ], [ -80.409506511045748, 37.21299809666224 ], [ -80.409505410150629, 37.212908011627697 ], [ -80.409843431893322, 37.212905370577666 ], [ -80.409842330591772, 37.212815285542916 ], [ -80.410067678134183, 37.212813524299776 ], [ -80.410066576562556, 37.212723439263769 ], [ -80.410404597447069, 37.212720796584371 ], [ -80.410403495469026, 37.212630711548172 ], [ -80.410628842439294, 37.212628949218804 ], [ -80.410627740191188, 37.212538864181319 ], [ -80.410965760217479, 37.212536219872547 ], [ -80.410964657562943, 37.212446134834813 ], [ -80.411190003961053, 37.212444371419245 ], [ -80.411188901036468, 37.212354286380268 ], [ -80.411414247151171, 37.212352522530544 ], [ -80.411413143956509, 37.21226243749031 ], [ -80.411638489787819, 37.212260673206579 ], [ -80.411637386323108, 37.212170588165122 ], [ -80.411975404640927, 37.212167940924765 ], [ -80.411974300769799, 37.212077855883109 ], [ -80.41219964602891, 37.212076090513072 ], [ -80.412198541887733, 37.211986005470123 ], [ -80.412649231828453, 37.211982473425785 ], [ -80.412648127144493, 37.21189238838371 ], [ -80.412873471826074, 37.211890621709365 ], [ -80.412872366872065, 37.211800536666047 ], [ -80.413097711270225, 37.211798769557618 ], [ -80.413096606046153, 37.211708684513077 ], [ -80.413209278104873, 37.21170780079634 ], [ -80.413210383465298, 37.211797885839857 ], [ -80.414337105268785, 37.211789042665288 ], [ -80.414338211995513, 37.211879127695155 ], [ -80.414563556596789, 37.211877357749685 ], [ -80.414564663598938, 37.211967442774132 ], [ -80.415240698156623, 37.21196213031466 ], [ -80.415241805979619, 37.212052215329564 ], [ -80.416143186330601, 37.212045125935894 ], [ -80.416142077416708, 37.211955040929325 ], [ -80.416592766982319, 37.211951493619779 ], [ -80.416591657525672, 37.211861408614041 ], [ -80.416704329773992, 37.211860521515092 ], [ -80.416703220183663, 37.211770436507074 ], [ -80.416815892292931, 37.211769549300136 ], [ -80.41681478256892, 37.211679464289851 ], [ -80.416927454539149, 37.211678576974975 ], [ -80.416926344681457, 37.211588491962381 ], [ -80.417039016512646, 37.21158760453946 ], [ -80.417036796532599, 37.211407434506384 ], [ -80.417149468088368, 37.211406546976512 ], [ -80.417148357966028, 37.211316461956081 ], [ -80.417261029382757, 37.211315574318185 ], [ -80.417258808873399, 37.21113540426937 ], [ -80.417371480014722, 37.211134516524574 ], [ -80.417369259243387, 37.210954346464547 ], [ -80.417481930109304, 37.210953458612792 ], [ -80.417480819591304, 37.210863373578846 ], [ -80.417593490318168, 37.210862485619003 ], [ -80.417592379666502, 37.21077240058279 ], [ -80.417705050254327, 37.210771512515024 ], [ -80.417703939468993, 37.210681427476516 ], [ -80.417816609917764, 37.210680539300753 ], [ -80.417815498998763, 37.210590454259929 ], [ -80.417928169308496, 37.210589565976193 ], [ -80.417927058255827, 37.21049948093313 ], [ -80.418152398594486, 37.210497704040606 ], [ -80.418151287271797, 37.210407618996292 ], [ -80.418263957300724, 37.210406730387497 ], [ -80.418262845844367, 37.210316645340882 ], [ -80.418375515734269, 37.210315756624112 ], [ -80.418374404144231, 37.210225671575238 ], [ -80.418487073895079, 37.210224782750466 ], [ -80.418485962171388, 37.210134697699289 ], [ -80.418598631783198, 37.210133808766564 ], [ -80.418597519925825, 37.210043723713085 ], [ -80.418822858868637, 37.210041945522597 ], [ -80.418821746741273, 37.209951860467882 ], [ -80.418934416072275, 37.209950971210127 ], [ -80.418933303811244, 37.209860886153173 ], [ -80.419045973003207, 37.209859996787358 ], [ -80.419043748216481, 37.209679826665514 ], [ -80.419156417133053, 37.209678937192798 ], [ -80.419155304607386, 37.209588852127951 ], [ -80.419267973384891, 37.209587962547289 ], [ -80.419266860725571, 37.209497877480104 ], [ -80.419492197999801, 37.209496097993679 ], [ -80.419491085070476, 37.209406012925299 ], [ -80.419829090552568, 37.209403342881124 ], [ -80.419827977216855, 37.209313257812511 ], [ -80.419940645569142, 37.209312367580765 ], [ -80.419939532099775, 37.209222282509842 ], [ -80.420164868523571, 37.209220501721319 ], [ -80.420163754784184, 37.209130416649188 ], [ -80.420276422855679, 37.209129526092447 ], [ -80.420275308982653, 37.209039441018071 ], [ -80.420387976915094, 37.209038550353299 ], [ -80.420386862908416, 37.208948465276592 ], [ -80.420499530701804, 37.208947574503874 ], [ -80.420498416561472, 37.208857489424886 ], [ -80.420611084215821, 37.208856598544145 ], [ -80.420609969941822, 37.208766513462919 ], [ -80.420722637457132, 37.208765622474182 ], [ -80.42072152304948, 37.208675537390697 ], [ -80.420834190425722, 37.208674646293964 ], [ -80.420833075884431, 37.208584561208149 ], [ -80.420945743121635, 37.208583670003421 ], [ -80.420944628446676, 37.208493584915345 ], [ -80.421057295544841, 37.208492693602643 ], [ -80.421055065930318, 37.208312523418506 ], [ -80.421167732753091, 37.208311631998932 ], [ -80.421166617813526, 37.208221546902919 ], [ -80.421729951205108, 37.208217088174564 ], [ -80.421731066826396, 37.208307173265354 ], [ -80.421843733632969, 37.20830628119154 ], [ -80.421844849393324, 37.208396366277924 ], [ -80.421957516333535, 37.20839547409409 ], [ -80.421958632232943, 37.208485559176054 ], [ -80.422071299306808, 37.208484666882086 ], [ -80.422072415345255, 37.20857475195978 ], [ -80.422185082552772, 37.208573859555692 ], [ -80.422186198730273, 37.208663944628974 ], [ -80.422298866071429, 37.208663052114815 ], [ -80.422299982387997, 37.208753137183734 ], [ -80.422412649862792, 37.208752244559534 ], [ -80.4224137663184, 37.208842329624034 ], [ -80.422526433926862, 37.20884143688977 ], [ -80.422527550521522, 37.208931521949914 ], [ -80.422640218263638, 37.208930629105545 ], [ -80.422641334997351, 37.209020714161277 ], [ -80.422754002873106, 37.209019821206844 ], [ -80.422755119745872, 37.209109906258227 ], [ -80.42286778775528, 37.209109013193689 ], [ -80.422868904767114, 37.209199098240688 ], [ -80.422981572910146, 37.209198205066109 ], [ -80.422982690061033, 37.209288290108724 ], [ -80.423095358337733, 37.209287396824038 ], [ -80.423096475627673, 37.209377481862262 ], [ -80.423209144038026, 37.209376588467492 ], [ -80.42321249633315, 37.209646843559121 ], [ -80.423550502775129, 37.2096441627112 ], [ -80.423551620621311, 37.209734247731937 ], [ -80.423664289566247, 37.209733353896844 ], [ -80.423665407551496, 37.209823438913141 ], [ -80.423778076630072, 37.209822544967999 ], [ -80.423780312881377, 37.210002714988669 ], [ -80.423892982229972, 37.210001820932355 ], [ -80.423894100496042, 37.210091905936622 ], [ -80.424119439457797, 37.210090117494815 ], [ -80.424120557999288, 37.21018020249366 ], [ -80.424458566830694, 37.21017751901001 ], [ -80.424457447880144, 37.210087434014255 ], [ -80.424682786814827, 37.210085644482128 ], [ -80.424681667594257, 37.209995559485208 ], [ -80.424907006245405, 37.209993769518974 ], [ -80.424909245234659, 37.21017393950531 ], [ -80.425021914828861, 37.210173044356566 ], [ -80.425020795196531, 37.21008295936609 ], [ -80.42513346465168, 37.210082064109351 ], [ -80.425134584420363, 37.210172149098753 ], [ -80.426373949747926, 37.210162294066826 ], [ -80.426375071019237, 37.210252379041371 ], [ -80.426825749784186, 37.210248792118115 ], [ -80.426826871603652, 37.210338877085114 ], [ -80.42693954142446, 37.210337980080666 ], [ -80.426940663382979, 37.210428065043253 ], [ -80.427053333337426, 37.210427167928749 ], [ -80.427054455435027, 37.210517252886966 ], [ -80.427167125523113, 37.210516355662328 ], [ -80.427168247759766, 37.210606440616175 ], [ -80.427280917981506, 37.210605543281453 ], [ -80.427282040357241, 37.210695628230916 ], [ -80.427394710712619, 37.210694730786095 ], [ -80.427395833227436, 37.210784815731209 ], [ -80.427508503716439, 37.210783918176318 ], [ -80.427509626370338, 37.210874003117034 ], [ -80.427622296992993, 37.210873105452087 ], [ -80.427623419785959, 37.210963190388405 ], [ -80.427736090542254, 37.210962292613317 ], [ -80.427737213474288, 37.2110523775453 ], [ -80.427849884364221, 37.211051479660156 ], [ -80.427851007435351, 37.211141564587692 ], [ -80.428301691513312, 37.211137971952532 ], [ -80.428302815132596, 37.211228056872564 ], [ -80.428640828571574, 37.211225361248118 ], [ -80.42863970454323, 37.211135276331255 ], [ -80.428752375547759, 37.211134377572776 ], [ -80.428750127226479, 37.210954207731199 ], [ -80.429538822272946, 37.210947913383528 ], [ -80.429539947386743, 37.211037998298607 ], [ -80.429652618233135, 37.211037098668889 ], [ -80.429653743486, 37.211127183579549 ], [ -80.429766414466016, 37.211126283839761 ], [ -80.429767539857977, 37.211216368746072 ], [ -80.429992882082573, 37.211214568937251 ], [ -80.429994007749968, 37.211304653838155 ], [ -80.431684076132228, 37.211291141353946 ], [ -80.431685203847735, 37.211381226235616 ], [ -80.432023217859609, 37.211378520791648 ], [ -80.432024345986918, 37.211468605666809 ], [ -80.432137017455119, 37.211467703633048 ], [ -80.432138145721524, 37.211557788503868 ], [ -80.432250817323336, 37.211556886359936 ], [ -80.432251945728837, 37.211646971226408 ], [ -80.432364617464287, 37.211646068972414 ], [ -80.432365746008884, 37.211736153834465 ], [ -80.432478417877959, 37.211735251470373 ], [ -80.432479546561652, 37.21182533632804 ], [ -80.432592218564352, 37.211824433853884 ], [ -80.43259334738714, 37.211914518707204 ], [ -80.432706019523465, 37.211913616122871 ], [ -80.432707148485335, 37.212003700971799 ], [ -80.432819820755299, 37.212002798277425 ], [ -80.432822078959987, 37.212182967963166 ], [ -80.432934751499943, 37.212182065157648 ], [ -80.432937009988279, 37.212362234827971 ], [ -80.433049682798227, 37.212361331911268 ], [ -80.433056459147039, 37.212901840836146 ], [ -80.434633889653625, 37.212889188464665 ], [ -80.434635020963782, 37.212979273259016 ], [ -80.434747694687232, 37.212978368699346 ], [ -80.434753351960907, 37.213428792615922 ], [ -80.434866026363451, 37.21342788794189 ], [ -80.434868289564832, 37.213608057483214 ], [ -80.434980964237369, 37.213607152698032 ], [ -80.43498209597854, 37.213697237462654 ], [ -80.435094770784701, 37.213696332567359 ], [ -80.435097034547994, 37.213876502084467 ], [ -80.435209709624161, 37.213875597078001 ], [ -80.435210841646281, 37.21396568183053 ], [ -80.435323516856073, 37.213964776713986 ], [ -80.435325781181291, 37.214144946206972 ], [ -80.435438456661075, 37.214144040979271 ], [ -80.435440721269984, 37.214324210456816 ], [ -80.435553397019774, 37.214323305117922 ], [ -80.435555661912389, 37.214503474580113 ], [ -80.43544298588985, 37.214504379921117 ], [ -80.435444118203918, 37.214594464648293 ], [ -80.435331442042269, 37.214595369881273 ], [ -80.435332574222699, 37.214685454606219 ], [ -80.435219897921939, 37.21468635973126 ], [ -80.43522102996873, 37.21477644445396 ], [ -80.435108353528861, 37.214777349470999 ], [ -80.435109485442013, 37.214867434191419 ], [ -80.434996808863033, 37.214868339100505 ], [ -80.435010390398176, 37.215949355499617 ], [ -80.434897712179961, 37.215950260312404 ], [ -80.43490450227722, 37.216490768339426 ], [ -80.435017181313697, 37.216489863520259 ], [ -80.435020576808455, 37.216760117485883 ], [ -80.435133256251319, 37.216759212554472 ], [ -80.435134388224768, 37.216849297202003 ], [ -80.435247067801271, 37.216848392160493 ], [ -80.435248199913843, 37.216938476803648 ], [ -80.435360879623985, 37.216937571652032 ], [ -80.435362011875668, 37.217027656290803 ], [ -80.435474691719463, 37.217026751029124 ], [ -80.43547582411027, 37.217116835663518 ], [ -80.43558850408769, 37.217115930291669 ], [ -80.435589636617621, 37.217206014921736 ], [ -80.435702316728694, 37.217205109439782 ], [ -80.435703449397735, 37.217295194065436 ], [ -80.435816129642447, 37.217294288473425 ], [ -80.435817262450612, 37.217384373094653 ], [ -80.435929942828963, 37.217383467392565 ], [ -80.435931075776253, 37.217473552009466 ], [ -80.436043756288242, 37.217472646197216 ], [ -80.436044889374671, 37.217562730809782 ], [ -80.436157570020285, 37.217561824887383 ], [ -80.436158703245837, 37.217651909495586 ], [ -80.43627138402509, 37.217651003463118 ], [ -80.436272517389781, 37.217741088066887 ], [ -80.436385198302673, 37.21774018192432 ], [ -80.436386331806474, 37.217830266523698 ], [ -80.436499012853005, 37.217829360271054 ], [ -80.436500146495945, 37.217919444866062 ], [ -80.436612827676129, 37.217918538503277 ], [ -80.436613961458178, 37.218008623093958 ], [ -80.436726642771987, 37.218007716621081 ], [ -80.436727776693175, 37.218097801207357 ], [ -80.436840458140622, 37.218096894624374 ], [ -80.436841592200949, 37.218186979206308 ], [ -80.43695427378205, 37.218186072513177 ], [ -80.436955407981486, 37.218276157090735 ], [ -80.437068089696211, 37.218275250287498 ], [ -80.437069224034801, 37.218365334860678 ], [ -80.437181905883179, 37.218364427947357 ], [ -80.437183040360878, 37.218454512516182 ], [ -80.437295722342881, 37.218453605492677 ], [ -80.437296856959733, 37.218543690057132 ], [ -80.438310995901631, 37.218535521929496 ], [ -80.438309860057316, 37.218445437374669 ], [ -80.438647905912646, 37.218442712705802 ], [ -80.438646769661929, 37.218352628150825 ], [ -80.439886269419347, 37.218342629313589 ], [ -80.439887407170303, 37.218432713856842 ], [ -80.440000089086283, 37.218431804216266 ], [ -80.440001226976378, 37.218521888755134 ], [ -80.44011390902601, 37.218520979004438 ], [ -80.440132117824334, 37.21996233115923 ] ] ] } }
]
}
