{
"type": "FeatureCollection",
"name": "Walker1B.kml",
"crs": { "type": "name", "properties": { "name": "urn:ogc:def:crs:OGC:1.3:CRS84" } },
"features": [
{ "type": "Feature", "properties": { "Name": "Walker1B", "tessellate": -1, "extrude": 0, "visibility": -1, "FID": 0.0, "Cells": 94777.0, "Faces": 188852.0, "Facepoints": 95147.0, "Manning's": 0.06, "Cell Volum": 0.01, "Cell Minim": 0.01, "Face Profi": 0.01, "Face Area": 0.01, "Face Area1": 0.02, "Laminar De": 0.2, "Count": 28.0, "Length": 5785.6504762499999, "Area": 2344656.71172, "Cell Size": 5.0, "Cell Size1": 5.0 }, "geometry": { "type": "Polygon", "coordinates": [ [ [ -119.506074385424995, 38.556607777031402, 0.0 ], [ -119.505679956321998, 38.555781723998699, 0.0 ], [ -119.505677242318995, 38.554733341711703, 0.0 ], [ -119.505687835307, 38.5539504776551, 0.0 ], [ -119.505104856816004, 38.553321904169202, 0.0 ], [ -119.503603847351002, 38.553097037661097, 0.0 ], [ -119.502061026003801, 38.552774604740158, 0.0 ], [ -119.501189672564394, 38.552704708975646, 0.0 ], [ -119.500806510214602, 38.552630111411368, 0.0 ], [ -119.500487003364199, 38.552591758286127, 0.0 ], [ -119.500206442519698, 38.55259855459893, 0.0 ], [ -119.499521140408902, 38.552603846888452, 0.0 ], [ -119.499189712965503, 38.552784342563363, 0.0 ], [ -119.498853734282406, 38.553183810885599, 0.0 ], [ -119.498616492625899, 38.553635608215842, 0.0 ], [ -119.498308007666395, 38.55429764106303, 0.0 ], [ -119.497865233547998, 38.555249208959289, 0.0 ], [ -119.497727017134395, 38.556151849586392, 0.0 ], [ -119.498516609899994, 38.557951780299007, 0.0 ], [ -119.499482056614397, 38.558597419515543, 0.0 ], [ -119.500564668318006, 38.559040801087903, 0.0 ], [ -119.502951556574104, 38.559003346178933, 0.0 ], [ -119.504047446333303, 38.558545062582603, 0.0 ], [ -119.505161885082998, 38.5578475778442, 0.0 ], [ -119.505727081786006, 38.557294939124702, 0.0 ], [ -119.506074385424995, 38.556607777031402, 0.0 ] ] ] } }
]
}
